NORAD_CAT_ID,OBJECT_NAME,OBJECT_TYPE,EPOCH,MEAN_MOTION,ECCENTRICITY,INCLINATION,RA_OF_ASC_NODE,ARG_OF_PERICENTER,MEAN_ANOMALY,BSTAR,MEAN_MOTION_DOT,MEAN_MOTION_DDOT,TLE_LINE0,TLE_LINE1,TLE_LINE2,SEMIMAJOR_AXIS,PERIOD,APOGEE,PERIGEE,DECAYED
54192.0,STARLINK-5268,PAYLOAD,2024-05-17 19:48:04,15.08828998,0.000151,53.2156,80.5835,86.4925,273.624,-6.5571e-05,-1.331e-05,0.0,0 STARLINK-5268,1 54192U 22141AM  24138.82504657 -.00001331  00000-0 -65571-4 0  9994,2 54192  53.2156  80.5835 0001510  86.4925 273.6240 15.08828998 86461,6917.914,95.438,540.824,538.734,0.0
54192.0,STARLINK-5268,PAYLOAD,2024-05-18 03:44:59,15.08846591,0.0001321,53.2165,79.0965,99.0988,261.0154,0.00020736,3.014e-05,0.0,0 STARLINK-5268,1 54192U 22141AM  24139.15623958  .00003014  00000-0  20736-3 0  9998,2 54192  53.2165  79.0965 0001321  99.0988 261.0154 15.08846591 86517,6917.86,95.437,540.639,538.811,0.0
54192.0,STARLINK-5268,PAYLOAD,2024-05-18 13:17:18,15.08842463,0.000136,53.2171,77.311,89.6962,270.4186,0.00016803,2.387e-05,0.0,0 STARLINK-5268,1 54192U 22141AM  24139.55368169  .00002387  00000-0  16803-3 0  9994,2 54192  53.2171  77.3110 0001360  89.6962 270.4186 15.08842463 86341,6917.873,95.437,540.679,538.797,0.0
54192.0,STARLINK-5268,PAYLOAD,2024-05-19 02:00:22,15.08850843,8.59e-05,53.2165,74.9324,87.5735,272.5356,0.00035895,5.431e-05,0.0,0 STARLINK-5268,1 54192U 22141AM  24140.08359592  .00005431  00000-0  35895-3 0  9999,2 54192  53.2165  74.9324 0000859  87.5735 272.5356 15.08850843 86423,6917.847,95.437,540.306,539.118,0.0
54192.0,STARLINK-5268,PAYLOAD,2024-05-19 19:29:39,15.08812775,0.0001964,53.2174,71.6633,79.021,281.1003,-0.0001518,-2.701e-05,0.0,0 STARLINK-5268,1 54192U 22141AM  24140.81226645 -.00002701  00000-0 -15180-3 0  9996,2 54192  53.2174  71.6633 0001964  79.0210 281.1003 15.08812775 86766,6917.964,95.439,541.187,538.47,0.0
54192.0,STARLINK-5268,PAYLOAD,2024-05-20 01:51:11,15.08839379,0.0001506,53.2172,70.4708,111.7939,248.3214,3.5642e-05,2.79e-06,0.0,0 STARLINK-5268,1 54192U 22141AM  24141.07721462  .00000279  00000-0  35642-4 0  9994,2 54192  53.2172  70.4708 0001506 111.7939 248.3214 15.08839379 86801,6917.882,95.438,540.789,538.705,0.0
54192.0,STARLINK-5268,PAYLOAD,2024-05-20 05:01:57,15.08836653,0.0001909,53.2174,69.8759,123.35,236.7675,0.00010395,1.366e-05,0.0,0 STARLINK-5268,1 54192U 22141AM  24141.20969558  .00001366  00000-0  10395-3 0  9994,2 54192  53.2174  69.8759 0001909 123.3500 236.7675 15.08836653 86591,6917.891,95.438,541.076,538.435,0.0
54192.0,STARLINK-5268,PAYLOAD,2024-05-21 04:52:43,15.08878126,0.0001674,53.2174,65.4159,118.1952,241.921,0.0011393,0.00017909,0.0,0 STARLINK-5268,1 54192U 22141AM  24142.20328341  .00017909  00000-0  11393-2 0  9992,2 54192  53.2174  65.4159 0001674 118.1952 241.9210 15.08878126 86975,6917.764,95.435,540.787,538.471,0.0
54192.0,STARLINK-5268,PAYLOAD,2024-05-21 22:21:58,15.08852791,0.0001621,53.218,62.1459,116.8743,243.2415,0.00025173,3.722e-05,0.0,0 STARLINK-5268,1 54192U 22141AM  24142.93192488  .00003722  00000-0  25173-3 0  9993,2 54192  53.2180  62.1459 0001621 116.8743 243.2415 15.08852791 86853,6917.841,95.437,540.828,538.585,0.0
54192.0,STARLINK-5268,PAYLOAD,2024-05-22 04:43:31,15.08849119,0.0001202,53.2182,60.9574,78.27,281.8427,0.0010479,0.00016433,0.0,0 STARLINK-5268,1 54192U 22141AM  24143.19688727  .00016433  00000-0  10479-2 0  9993,2 54192  53.2182  60.9574 0001202  78.2700 281.8427 15.08849119 87120,6917.853,95.437,540.549,538.886,0.0
54192.0,STARLINK-5268,PAYLOAD,2024-05-23 02:58:55,15.08854462,0.0001234,53.2177,56.7891,100.5629,259.5503,0.0010691,0.00016774,0.0,0 STARLINK-5268,1 54192U 22141AM  24144.12424832  .00016774  00000-0  10691-2 0  9996,2 54192  53.2177  56.7891 0001234 100.5629 259.5503 15.08854462 87262,6917.836,95.437,540.555,538.848,0.0
54192.0,STARLINK-5268,PAYLOAD,2024-05-23 18:52:46,15.08851994,0.0001383,53.2178,53.8231,109.0391,251.0751,0.0004735,7.258e-05,0.0,0 STARLINK-5268,1 54192U 22141AM  24144.78664997  .00007258  00000-0  47350-3 0  9996,2 54192  53.2178  53.8231 0001383 109.0391 251.0751 15.08851994 87364,6917.844,95.437,540.665,538.752,0.0
54192.0,STARLINK-5268,PAYLOAD,2024-05-24 02:49:42,15.08854344,0.0001404,53.2181,52.3386,102.8269,257.288,0.0006507,0.00010087,0.0,0 STARLINK-5268,1 54192U 22141AM  24145.11784902  .00010087  00000-0  65070-3 0  9996,2 54192  53.2181  52.3386 0001404 102.8269 257.2880 15.08854344 87185,6917.837,95.437,540.673,538.73,0.0
54192.0,STARLINK-5268,PAYLOAD,2024-05-24 21:54:19,15.08841362,0.0002011,53.2185,48.7689,134.5841,225.5316,2.9793e-05,1.86e-06,0.0,0 STARLINK-5268,1 54192U 22141AM  24145.91272940  .00000186  00000-0  29793-4 0  9990,2 54192  53.2185  48.7689 0002011 134.5841 225.5316 15.08841362 87309,6917.876,95.437,541.132,538.35,0.0
54192.0,STARLINK-5268,PAYLOAD,2024-05-25 02:40:29,15.08845105,0.0001271,53.2171,47.8762,87.4347,272.6791,0.00049149,7.544e-05,0.0,0 STARLINK-5268,1 54192U 22141AM  24146.11145197  .00007544  00000-0  49149-3 0  9997,2 54192  53.2171  47.8762 0001271  87.4347 272.6791 15.08845105 87567,6917.865,95.437,540.609,538.851,0.0
54192.0,STARLINK-5268,PAYLOAD,2024-05-25 10:37:25,15.08829105,0.0001048,53.2174,46.3886,83.1992,276.912,-2.8456e-05,-7.4e-06,0.0,0 STARLINK-5268,1 54192U 22141AM  24146.44265487 -.00000740  00000-0 -28456-4 0  9990,2 54192  53.2174  46.3886 0001048  83.1992 276.9120 15.08829105 87613,6917.914,95.438,540.504,539.054,0.0
54192.0,STARLINK-5268,PAYLOAD,2024-05-26 00:55:54,15.08840787,0.0001308,53.217,43.7138,80.1293,279.9847,0.0002368,3.483e-05,0.0,0 STARLINK-5268,1 54192U 22141AM  24147.03881991  .00003483  00000-0  23680-3 0  9998,2 54192  53.2170  43.7138 0001308  80.1293 279.9847 15.08840787 87708,6917.878,95.438,540.648,538.838,0.0
54192.0,STARLINK-5268,PAYLOAD,2024-05-26 23:11:17,15.08853649,0.0001137,53.2168,39.551,76.052,284.0598,0.00062531,9.682e-05,0.0,0 STARLINK-5268,1 54192U 22141AM  24147.96617589  .00009682  00000-0  62531-3 0  9995,2 54192  53.2168  39.5510 0001137  76.0520 284.0598 15.08853649 87610,6917.839,95.437,540.49,538.917,0.0
54192.0,STARLINK-5268,PAYLOAD,2024-05-27 02:22:03,15.08863809,0.0001286,53.217,38.9543,76.4426,283.671,0.00086446,0.00013506,0.0,0 STARLINK-5268,1 54192U 22141AM  24148.09865261  .00013506  00000-0  86446-3 0  9993,2 54192  53.2170  38.9543 0001286  76.4426 283.6710 15.08863809 87863,6917.808,95.436,540.562,538.783,0.0
54192.0,STARLINK-5268,PAYLOAD,2024-05-27 23:02:04,15.08850139,0.0001298,53.2183,35.0908,56.7778,303.3338,0.00017003,2.42e-05,0.0,0 STARLINK-5268,1 54192U 22141AM  24148.95977177  .00002420  00000-0  17003-3 0  9994,2 54192  53.2183  35.0908 0001298  56.7778 303.3338 15.08850139 87761,6917.849,95.437,540.612,538.816,0.0
54192.0,STARLINK-5268,PAYLOAD,2024-05-28 02:12:50,15.08853841,0.0001175,53.2174,34.4928,84.6551,275.4575,0.00029337,4.386e-05,0.0,0 STARLINK-5268,1 54192U 22141AM  24149.09224890  .00004386  00000-0  29337-3 0  9993,2 54192  53.2174  34.4928 0001175  84.6551 275.4575 15.08853841 88013,6917.838,95.437,540.516,538.89,0.0
54192.0,STARLINK-5268,PAYLOAD,2024-05-28 19:42:04,15.08841761,0.0001511,53.2178,31.2163,117.3891,242.7255,0.00015562,2.19e-05,0.0,0 STARLINK-5268,1 54192U 22141AM  24149.82089056  .00002190  00000-0  15562-3 0  9993,2 54192  53.2178  31.2163 0001511 117.3891 242.7255 15.08841761 88120,6917.875,95.437,540.785,538.695,0.0
54192.0,STARLINK-5268,PAYLOAD,2024-05-28 21:17:28,15.08840585,0.000148,53.2181,30.9231,108.9333,251.182,-2.9925e-05,-7.64e-06,0.0,0 STARLINK-5268,1 54192U 22141AM  24149.88713150 -.00000764  00000-0 -29925-4 0  9994,2 54192  53.2181  30.9231 0001480 108.9333 251.1820 15.08840585 87908,6917.879,95.438,540.767,538.72,0.0
54192.0,STARLINK-5268,PAYLOAD,2024-05-29 21:08:15,15.08846986,0.0001577,53.2184,26.461,110.3344,249.7818,-2.7902e-05,-7.32e-06,0.0,0 STARLINK-5268,1 54192U 22141AM  24150.88073003 -.00000732  00000-0 -27902-4 0  9990,2 54192  53.2184  26.4610 0001577 110.3344 249.7818 15.08846986 88281,6917.859,95.437,540.815,538.633,0.0
54192.0,STARLINK-5268,PAYLOAD,2024-05-29 22:43:38,15.08845701,0.0001217,53.2179,26.163,88.5845,271.5287,0.00011544,1.55e-05,0.0,0 STARLINK-5268,1 54192U 22141AM  24150.94697196  .00001550  00000-0  11544-3 0  9993,2 54192  53.2179  26.1630 0001217  88.5845 271.5287 15.08845701 88060,6917.863,95.437,540.57,538.886,0.0
54192.0,STARLINK-5268,PAYLOAD,2024-05-30 20:59:02,15.08846056,0.0001435,53.2188,22.0089,110.7266,249.388,0.00020646,3e-05,0.0,0 STARLINK-5268,1 54192U 22141AM  24151.87433240  .00003000  00000-0  20646-3 0  9999,2 54192  53.2188  22.0089 0001435 110.7266 249.3880 15.08846056 88202,6917.862,95.437,540.72,538.734,0.0
54192.0,STARLINK-5268,PAYLOAD,2024-05-31 00:09:48,15.08850304,0.0001376,53.2188,21.4109,102.9034,257.2112,0.00025656,3.799e-05,0.0,0 STARLINK-5268,1 54192U 22141AM  24152.00681001  .00003799  00000-0  25656-3 0  9996,2 54192  53.2188  21.4109 0001376 102.9034 257.2112 15.08850304 88452,6917.849,95.437,540.666,538.762,0.0
54192.0,STARLINK-5268,PAYLOAD,2024-05-31 20:49:49,15.08844797,0.0001524,53.2184,17.5443,80.8919,279.2245,4.8786e-05,4.89e-06,0.0,0 STARLINK-5268,1 54192U 22141AM  24152.86793229  .00000489  00000-0  48786-4 0  9999,2 54192  53.2184  17.5443 0001524  80.8919 279.2245 15.08844797 88580,6917.866,95.437,540.785,538.676,0.0
54192.0,STARLINK-5268,PAYLOAD,2024-06-01 07:57:31,15.08838031,0.0001448,53.2176,15.4607,81.7333,278.3823,-2.1034e-05,-6.23e-06,0.0,0 STARLINK-5268,1 54192U 22141AM  24153.33161400 -.00000623  00000-0 -21034-4 0  9991,2 54192  53.2176  15.4607 0001448  81.7333 278.3823 15.08838031 88424,6917.886,95.438,540.753,538.75,0.0
54192.0,STARLINK-5268,PAYLOAD,2024-06-01 20:40:36,15.08836948,0.0001246,53.2167,13.0815,82.1473,277.966,-7.6278e-05,-1.502e-05,0.0,0 STARLINK-5268,1 54192U 22141AM  24153.86153646 -.00001502  00000-0 -76278-4 0  9999,2 54192  53.2167  13.0815 0001246  82.1473 277.9660 15.08836948 88738,6917.89,95.438,540.617,538.893,0.0
